NORAD_CAT_ID,OBJECT_NAME,OBJECT_TYPE,EPOCH,MEAN_MOTION,ECCENTRICITY,INCLINATION,RA_OF_ASC_NODE,ARG_OF_PERICENTER,MEAN_ANOMALY,BSTAR,MEAN_MOTION_DOT,MEAN_MOTION_DDOT,TLE_LINE0,TLE_LINE1,TLE_LINE2,SEMIMAJOR_AXIS,PERIOD,APOGEE,PERIGEE,DECAYED
49435.0,STARLINK-3117,PAYLOAD,2021-12-31 14:00:01,15.71565364,0.0001281999999999,53.2174,255.2011,48.6518,31.0488,-0.0025262,-0.00319038,0.0,0 STARLINK-3117,1 49435U 21104AD  21365.58334491 -.00319038  00000-0 -25262-2 0  9992,2 49435  53.2174 255.2011 0001282  48.6518  31.0488 15.71565364  3695,6732.56,91.628,355.288,353.56199999999984,0.0
49435.0,STARLINK-3117,PAYLOAD,2021-12-31 21:17:38,15.71646741,0.0001011,53.2159,253.7206,116.7123,243.4,-0.00074601,-0.00097474,0.0,0 STARLINK-3117,1 49435U 21104AD  21365.88724759 -.00097474  00000-0 -74601-3 0  9994,2 49435  53.2159 253.7206 0001011 116.7123 243.4000 15.71646741  7812,6732.3269999999975,91.624,354.87300000000016,353.51199999999994,0.0
49435.0,STARLINK-3117,PAYLOAD,2022-01-01 06:00:00,15.71133141,0.0001261,53.2171,251.9106,61.4064,191.6973,-0.0025934,-0.00321496,0.0,0 STARLINK-3117,1 49435U 21104AD  22001.25001157 -.00321496  00000-0 -25934-2 0  9991,2 49435  53.2171 251.9106 0001261  61.4064 191.6973 15.71133141  8956,6733.794,91.654,356.5080000000001,354.81,0.0
49435.0,STARLINK-3117,PAYLOAD,2022-01-01 14:00:01,15.7091299,0.0001124,53.2173,250.2635,67.3798,272.1031,-0.0025766,-0.00316646,0.0,0 STARLINK-3117,1 49435U 21104AD  22001.58335648 -.00316646  00000-0 -25766-2 0  9996,2 49435  53.2173 250.2635 0001124  67.3798 272.1031 15.70912990  3685,6734.4230000000025,91.666,357.045,355.532,0.0
49435.0,STARLINK-3117,PAYLOAD,2022-01-01 22:00:00,15.70698698,0.0001525,53.2173,248.6207,39.9065,25.5593,-0.0026356,-0.00320848,0.0,0 STARLINK-3117,1 49435U 21104AD  22001.91667824 -.00320848  00000-0 -26356-2 0  9992,2 49435  53.2173 248.6207 0001525  39.9065  25.5593 15.70698698  3687,6735.036,91.679,357.92800000000005,355.874,0.0
49435.0,STARLINK-3117,PAYLOAD,2022-01-02 14:00:01,15.70114716,0.000155,53.2167,245.3347,42.4615,194.3982,-0.00079318,-0.0009718,0.0,0 STARLINK-3117,1 49435U 21104AD  22002.58334491 -.00097180  00000-0 -79318-3 0  9994,2 49435  53.2167 245.3347 0001550  42.4615 194.3982 15.70114716  9167,6736.706,91.713,359.615,357.527,0.0
49435.0,STARLINK-3117,PAYLOAD,2022-01-02 22:00:00,15.70046967,0.0001541999999999,53.2175,243.6895,44.4941,277.559,-0.0026979,-0.00319634,0.0,0 STARLINK-3117,1 49435U 21104AD  22002.91667824 -.00319634  00000-0 -26979-2 0  9995,2 49435  53.2175 243.6895 0001542  44.4941 277.5590 15.70046967  3693,6736.9,91.717,359.80300000000005,357.726,0.0
49435.0,STARLINK-3117,PAYLOAD,2022-01-03 14:00:01,15.69613394,0.0001337,53.2173,240.4029,52.0949,79.7135,-0.0027581,-0.0032085,0.0,0 STARLINK-3117,1 49435U 21104AD  22003.58334491 -.00320850  00000-0 -27581-2 0  9992,2 49435  53.2173 240.4029 0001337  52.0949  79.7135 15.69613394  3699,6738.14,91.742,360.906,359.10400000000016,0.0
49435.0,STARLINK-3117,PAYLOAD,2022-01-03 22:00:00,15.69395057,0.0001651,53.2173,238.7633,41.853,174.4408,-0.0027611,-0.00318414,0.0,0 STARLINK-3117,1 49435U 21104AD  22003.91667824 -.00318414  00000-0 -27611-2 0  9995,2 49435  53.2173 238.7633 0001651  41.8530 174.4408 15.69395057  3690,6738.765,91.755,361.74300000000005,359.51800000000014,0.0
49435.0,STARLINK-3117,PAYLOAD,2022-01-04 12:00:00,15.69014353,0.000128,53.2173,235.89,56.7351,216.783,-0.0027827,-0.00315953,0.0,0 STARLINK-3117,1 49435U 21104AD  22004.50001157 -.00315953  00000-0 -27827-2 0  9996,2 49435  53.2173 235.8900 0001280  56.7351 216.7830 15.69014353  9466,6739.855,91.777,362.583,360.857,0.0
49435.0,STARLINK-3117,PAYLOAD,2022-01-04 14:00:01,15.68787399,0.0001154,53.2166,235.4828,45.1065,339.4676,-0.00054222,-0.00063327,0.0,0 STARLINK-3117,1 49435U 21104AD  22004.58334491 -.00063327  00000-0 -54222-3 0  9999,2 49435  53.2166 235.4828 0001154  45.1065 339.4676 15.68787399  3660,6740.505,91.791,363.148,361.592,0.0
49435.0,STARLINK-3117,PAYLOAD,2022-01-04 21:32:26,15.69004301,0.00015,53.215,233.9595,51.5864,308.5289,-0.0013538,-0.00156895,0.0,0 STARLINK-3117,1 49435U 21104AD  22004.89753108 -.00156895  00000-0 -13538-2 0  9990,2 49435  53.2150 233.9595 0001500  51.5864 308.5289 15.69004301  8444,6739.884,91.778,362.76,360.73800000000006,0.0
49435.0,STARLINK-3117,PAYLOAD,2022-01-05 14:00:01,15.68122202,0.0001254,53.2166,230.5639,46.1119,228.8031,-0.00042529,-0.0004855,0.0,0 STARLINK-3117,1 49435U 21104AD  22005.58334491 -.00048550  00000-0 -42529-3 0  9998,2 49435  53.2166 230.5639 0001254  46.1119 228.8031 15.68122202  9633,6742.411,91.83,365.122,363.431,0.0
49435.0,STARLINK-3117,PAYLOAD,2022-01-05 22:00:00,15.68095104,0.0001533,53.2174,228.9251,40.2793,317.4534,-0.0029468,-0.00321918,0.0,0 STARLINK-3117,1 49435U 21104AD  22005.91667824 -.00321918  00000-0 -29468-2 0  9992,2 49435  53.2174 228.9251 0001533  40.2793 317.4534 15.68095104  9684,6742.489000000001,91.831,365.388,363.32,0.0
49435.0,STARLINK-3117,PAYLOAD,2022-01-06 14:00:01,15.67659799,0.0001482,53.2173,225.6476,54.9887,107.8061,-0.0029647,-0.00318288,0.0,0 STARLINK-3117,1 49435U 21104AD  22006.58334491 -.00318288  00000-0 -29647-2 0  9992,2 49435  53.2173 225.6476 0001482  54.9887 107.8061 15.67659799  3680,6743.736999999999,91.857,366.601,364.603,0.0
49435.0,STARLINK-3117,PAYLOAD,2022-01-06 22:00:00,15.67283914,0.0001406999999999,53.217,224.0156,66.5671,178.4492,-0.0008145,-0.00088928,0.0,0 STARLINK-3117,1 49435U 21104AD  22006.91667824 -.00088928  00000-0 -81450-3 0  9994,2 49435  53.2170 224.0156 0001407  66.5671 178.4492 15.67283914  3675,6744.815,91.879,367.629,365.731,0.0
49435.0,STARLINK-3117,PAYLOAD,2022-01-07 06:00:00,15.67061963,0.0001563,53.2168,222.3783,47.9622,278.9449,-0.0008969,-0.00096902,0.0,0 STARLINK-3117,1 49435U 21104AD  22007.25001157 -.00096902  00000-0 -89690-3 0  9998,2 49435  53.2168 222.3783 0001563  47.9622 278.9449 15.67061963  9897,6745.4519999999975,91.892,368.371,366.263,0.0
49435.0,STARLINK-3117,PAYLOAD,2022-01-07 14:00:01,15.6685805,0.0001273,53.2168,220.7413,40.0889,8.4185,-0.00090862,-0.00097346,0.0,0 STARLINK-3117,1 49435U 21104AD  22007.58334491 -.00097346  00000-0 -90862-3 0  9990,2 49435  53.2168 220.7413 0001273  40.0889   8.4185 15.66858050  9945,6746.0369999999975,91.904,368.761,367.044,0.0
49435.0,STARLINK-3117,PAYLOAD,2022-01-07 22:00:00,15.66792271,0.0001669,53.2175,219.1058,39.208,90.5774,-0.0030868,-0.00319835,0.0,0 STARLINK-3117,1 49435U 21104AD  22007.91667824 -.00319835  00000-0 -30868-2 0  9995,2 49435  53.2175 219.1058 0001669  39.2080  90.5774 15.66792271  3685,6746.226,91.908,369.217,366.965,0.0
49435.0,STARLINK-3117,PAYLOAD,2022-01-08 00:00:00,15.66734789,0.0001641999999999,53.2175,218.6973,41.1378,198.9473,-0.0030377,-0.00314233,0.0,0 STARLINK-3117,1 49435U 21104AD  22008.00001157 -.00314233  00000-0 -30377-2 0  9999,2 49435  53.2175 218.6973 0001642  41.1378 198.9473 15.66734789 10012,6746.391,91.911,369.364,367.148,0.0
49435.0,STARLINK-3117,PAYLOAD,2022-01-08 14:00:01,15.66357425,0.0001423,53.2174,215.8348,49.464,242.2543,-0.0031166,-0.00317366,0.0,0 STARLINK-3117,1 49435U 21104AD  22008.58334491 -.00317366  00000-0 -31166-2 0  9999,2 49435  53.2174 215.8348 0001423  49.4640 242.2543 15.66357425  3679,6747.475,91.933,370.3,368.379,0.0
49435.0,STARLINK-3117,PAYLOAD,2022-01-08 22:00:00,15.66142113,0.0001484,53.2174,214.2034,42.8852,329.4061,-0.0031903,-0.00321878,0.0,0 STARLINK-3117,1 49435U 21104AD  22008.91667824 -.00321878  00000-0 -31903-2 0  9997,2 49435  53.2174 214.2034 0001484  42.8852 329.4061 15.66142113  3683,6748.093000000003,91.946,370.959,368.957,0.0
49435.0,STARLINK-3117,PAYLOAD,2022-01-09 06:00:00,15.65755338,0.0001629,53.2168,212.5712,44.8284,47.8694,-0.00076994,-0.00079177,0.0,0 STARLINK-3117,1 49435U 21104AD  22009.25001157 -.00079177  00000-0 -76994-3 0  9998,2 49435  53.2168 212.5712 0001629  44.8284  47.8694 15.65755338 10209,6749.204000000002,91.968,372.169,369.97,0.0
49435.0,STARLINK-3117,PAYLOAD,2022-01-09 14:00:01,15.65706378,0.0001474,53.2177,210.9356,48.3806,124.279,-0.0032007,-0.00317481,0.0,0 STARLINK-3117,1 49435U 21104AD  22009.58334491 -.00317481  00000-0 -32007-2 0  9993,2 49435  53.2177 210.9356 0001474  48.3806 124.2790 15.65706378 10265,6749.345,91.971,372.205,370.215,0.0
49435.0,STARLINK-3117,PAYLOAD,2022-01-09 22:00:00,15.65489592,0.0001663,53.2177,209.3055,42.0406,210.4104,-0.0032437,-0.0031891,0.0,0 STARLINK-3117,1 49435U 21104AD  22009.91667824 -.00318910  00000-0 -32437-2 0  9994,2 49435  53.2177 209.3055 0001663  42.0406 210.4104 15.65489592  3681,6749.968000000003,91.984,372.956,370.711,0.0
49435.0,STARLINK-3117,PAYLOAD,2022-01-10 14:00:01,15.64913422,0.0001483,53.2168,206.0425,51.9745,359.3614,-0.001256,-0.00123884,0.0,0 STARLINK-3117,1 49435U 21104AD  22010.58334491 -.00123884  00000-0 -12560-2 0  9999,2 49435  53.2168 206.0425 0001483  51.9745 359.3614 15.64913422  3661,6751.625,92.018,374.491,372.489,0.0
49435.0,STARLINK-3117,PAYLOAD,2022-01-10 22:00:00,15.64837143,0.0001617,53.2174,204.4126,40.9269,89.3368,-0.0033004,-0.00316223,0.0,0 STARLINK-3117,1 49435U 21104AD  22010.91667824 -.00316223  00000-0 -33004-2 0  9992,2 49435  53.2174 204.4126 0001617  40.9269  89.3368 15.64837143 10474,6751.844,92.022,374.801,372.617,0.0
49435.0,STARLINK-3117,PAYLOAD,2022-01-11 14:00:01,15.64405083,0.0001546,53.2176,201.1513,44.4738,243.028,-0.0033889,-0.00319042,0.0,0 STARLINK-3117,1 49435U 21104AD  22011.58334491 -.00319042  00000-0 -33889-2 0  9990,2 49435  53.2176 201.1513 0001546  44.4738 243.0280 15.64405083  3682,6753.087,92.048,375.996,373.908,0.0
49435.0,STARLINK-3117,PAYLOAD,2022-01-11 22:00:00,15.64187425,0.0001573,53.2176,199.5243,39.1928,326.536,-0.0034189,-0.00319094,0.0,0 STARLINK-3117,1 49435U 21104AD  22011.91667824 -.00319094  00000-0 -34189-2 0  9997,2 49435  53.2176 199.5243 0001573  39.1928 326.5360 15.64187425  3676,6753.714,92.061,376.641,374.516,0.0
